#dP2023  2  7  0  0  0.00000000      96 __u+U IGS14 FIT  IAC
## 2248 172800.00000000   900.00000000 59982 0.0000000000000
+  119   C06C07C08C09C10C11C12C13C14C16C19C20C21C22C23C24C25
+        C26C27C28C29C30C32C33C34C35C36C37C38C39C40C41C42C43
+        C44C45C46E01E02E03E04E05E07E08E09E10E11E12E13E14E15
+        E18E19E21E24E25E26E27E30E31E33E34E36G01G02G03G04G05
+        G06G07G08G09G10G11G12G13G14G15G16G17G18G19G20G21G22
+        G23G24G25G26G27G28G29G30G31G32J02J03R01R02R03R04R05
+        R07R08R09R11R12R13R14R15R16R17R18R19R20R21R22R24R25
++         9  9  9  9  9  8  8  9  8  9  6  6  6  6  6  6  6
++         6  6  6  6  6  6  6  6  6  5  6  6  7  6  6  6  6
++         6  5  6  4  4  4  4  4  4  4  4  4  4  4  4  4  0
++         4  4  4  4  4  4  4  4  5  5  4  4  4  4  3  3  4
++         3  4  4  3  3  3  3  4  3  4  4  3  3  3  4  4  4
++         3  3  3  4  4  4  4  4  3  3  9  9  7  7  7  6  7
++         7  7  7  7  7  7  7  7  7  7  7  8  8  7  6  6  8
%c M  cc GPS ccc cccc cccc cccc cccc ccccc ccccc ccccc ccccc
%c cc cc ccc ccc cccc cccc cccc cccc ccccc ccccc ccccc ccccc
%f  1.2500000  1.025000000  0.00000000000  0.000000000000000
%f  0.0000000  0.000000000  0.00000000000  0.000000000000000
%i    0    0    0    0      0      0      0      0         0
%i    0    0    0    0      0      0      0      0         0
/* INFORMATION & ANALYSIS CENTER (IAC)            FINAL DATA
/* S/V CLOCKS ARE ALIGNED TO GNSS TIME                      
/* G:C1WC2W R:C1PC2P E:C1XC5X C:C2IC6I J:C1CC2S             
/* PCV:IGS20_2247 OL/AL:FES2004  NONE     YN ORB:CoN CLK:CoN
*  2023 02 07  6  0  0.00000000
PC06 -17516.169285  36538.937527  11140.855386   -190.403617
PC07  -2651.416663  34996.756258  23511.471191    149.768763
PC08  -9757.856161  19563.164739 -36058.671104    527.040399
PC09 -11111.079223  35513.418029  19690.596590    575.049280
PC10   3265.896247  37697.643208  19390.317385     16.557912
PC11   1233.168705  21677.406759 -17469.084890   -134.504249
PC12 -12049.048665  25105.964938  -1780.414867    439.006728
PC13  -3660.908685  21808.946643 -35739.270160    201.895497
PC14  12626.813943  24555.991115  -4215.328202    452.150264
PC16 -18352.857287  36470.563026  10082.329206     64.799411
PC19 -17807.381891 -20848.833613  -5117.543186   -894.810687
PC20  -6665.076491 -24533.136324  11494.017357    734.692504
PC21  -9368.870662  13680.551452 -22430.110625   -912.084890
PC22 -19204.176981  -4922.605517 -19628.260985   -645.661461
PC23  27818.720944    103.660533   2143.357564   -875.613689
PC24  -2668.828566  16351.869403  22437.490348   -442.166182
PC25  19296.032325  10788.896687  17002.772519     67.957053
PC26 -20005.185829  12365.118107  15031.451223    -75.252685
PC27  16405.036403 -21633.366680  -6508.905197     93.095034
PC28  18743.496853  -6422.456527 -19647.338369     67.672746
PC29 -10270.752024 -13928.744153  21888.770788     77.773525
PC30   4376.188613 -25652.495931  10107.484684      1.203550
PC32   9366.425679 -13673.013063  22468.014025   -628.554961
PC33  17932.889663  20785.412023   5061.895254   -874.644489
PC34  -3404.593586  25325.456047 -11192.734030    100.679683
PC35 -18363.742577   5693.136072  20204.113637    684.710035
PC36 -18473.829252 -11560.413837 -17422.256086   -641.855887
PC37  21331.808484 -11245.573334 -14016.171528   -827.065596
PC38 -19011.189747  19789.704346 -32003.324109     57.131564
PC39 -21268.788095  36192.914226   2266.513248     -1.719496
PC40  -5960.976774  31583.337599  27390.671259    -14.476417
PC41  19436.996099   5447.737375  19324.513750   -582.905338
PC42   5734.176320  24285.919186 -12466.437268   -850.860428
PC43   9819.634830  14712.367943 -21584.919190      5.941902
PC44 -15691.357449  22073.945206   6639.482829      7.651559
PC45 -27865.155868    153.643604  -1770.139575    -57.301478
PC46    522.107590 -16238.788254 -22696.337483    -31.717289
PE01  -1684.945480  17578.835095  23747.658696   -600.241745
PE02   1194.141338 -17771.148422 -23654.178803     19.319194
PE03   2895.801802 -28931.345373   5524.009059   -647.562539
PE04   9618.217672  25061.133991  12477.012079    -52.903473
PE05  14007.506856 -15857.610929  20703.695866    -97.739415
PE07 -16757.613508  -6400.823890 -23540.073519    -21.049782
PE08  -9517.648948 -25130.506482 -12404.259570    -32.039738
PE09  16611.448691   6608.662065  23595.090281   -827.342196
PE10  17348.545240   6591.462454 -23060.595769   -510.613732
PE11  24145.988411  -2135.567976 -17004.162841    784.117911
PE12   8594.189006  13607.742945 -24838.235071   -412.957993
PE13 -23688.653989   1468.080616  17690.408102     -0.102490
PE14  17637.584633 -11266.051220 -19888.497290    135.200486
PE15      0.000000      0.000000      0.000000 999999.999999
PE18  -9585.042662  26007.375194   8219.492680   -419.646545
PE19  -4695.334601  28098.571931  -8019.694288  -3295.796959
PE21 -19225.262931   6445.604902  21561.090582   -510.724471
PE24  27188.092595   9914.997549  -6163.369675  -1100.526601
PE25  19453.738709  -6214.897578 -21422.587798   -598.851476
PE26 -24856.326906  16057.872335   -612.490793     11.144145
PE27 -27258.244218  -9251.695360   6932.735383   -506.312875
PE30 -18554.031588 -19604.613105 -12188.299352  -1222.539838
PE31  19147.519943  19337.578547  11631.952109   -515.368684
PE33 -11997.953940  20753.483156 -17345.898846   -452.567783
PE34  11805.088420 -20774.095590  17470.172913    -28.812948
PE36  25114.225019 -15679.040209   -188.087673     -8.745869
PG01  -5605.923193  17354.634356 -19490.313772    215.356572
PG02   1325.773823 -17692.587792  20465.466846   -622.482793
PG03   4873.781966  18073.391900 -19009.984013   -365.896789
PG04   -220.437198  26419.304600   2068.052566    -32.795623
PG05  11035.052546 -10867.153176  21420.159007   -114.950892
PG06  23531.891876  -3711.225131 -11770.919690    569.386460
PG07   9861.948060  12384.236764  21791.664008    245.535468
PG08  -6924.375190  23456.017849   9801.071794   -107.311954
PG09   8327.306559  22108.731620  12015.707663   -222.771366
PG10 -23898.183090 -10939.132206  -4685.922299    -23.658012
PG11  23604.739551 -12087.141422   1120.339444    -97.700086
PG12  -1840.353554 -18069.242624 -19693.442524   -337.349532
PG13  12951.569728 -17985.813473  14315.216061    472.083459
PG14  23043.773629  13102.220030  -2537.763664    -32.865574
PG15   3966.254595 -24406.951324   8868.396935     11.291728
PG16 -14524.987673   7144.273315  20847.701324   -521.122169
PG17  12792.186010  10629.493998 -20251.383099    698.437058
PG18 -12698.628147  -9711.890272  21238.966680   -130.388635
PG19  15172.844179   -982.723951 -21984.387151    274.393008
PG20  20311.938877  -4495.963758  16423.932978    452.258192
PG21 -13025.663698  18757.270035 -12246.537210    153.854371
PG22 -15106.903452   5323.413729 -20722.151512    421.978890
PG23 -19883.287273 -16522.986408   6415.685799      5.145502
PG24   8331.998134 -19597.367853 -15958.880681    -63.231831
PG25 -12048.390745 -19175.866053 -14410.042703    417.996906
PG26 -23241.025775  -1489.088410  12964.473978    241.265708
PG27 -12577.996045  14689.689594  17781.140171    108.313850
PG28 -22818.239032   2573.245938 -13375.692571      1.549386
PG29  -4141.061475 -24249.980917   9861.282361   -584.749547
PG30  20426.996781   3316.180001  16883.226012   -531.093579
PG31 -24482.563400   4533.648458 -10039.292348   -208.540104
PG32 -14529.347295  -7109.986435 -20937.959931   -388.508108
PJ02 -28046.847453  20620.446206  28818.818892     -0.807665
PJ03 -33758.887206  25283.581103   7002.383371      0.136580
PR01   8393.284424  -7904.883245  22756.394968     22.608945
PR02  -2501.679545 -22022.917173  12732.018431    -23.308178
PR03 -11523.576194 -22365.212946  -4346.963676     72.043921
PR04 -13711.055348 -10470.033784 -18765.746069    174.832034
PR05  -8612.878621   7131.670600 -22910.951825    107.350104
PR07  11807.572683  21961.589936   5293.882432     49.426412
PR08  13854.669492  10099.755779  18933.263078    -69.361422
PR09  -3208.353380  11024.333677  22786.291966    102.750778
PR11  24867.098694   4516.333560   3501.134545     -1.738758
PR12  20314.322000  -4596.252286 -14693.705231     24.847918
PR13   5262.260193 -10396.985311 -22711.291081    -31.747721
PR14 -15127.630399 -10436.591511 -17678.014976     24.341623
PR15 -25040.557130  -4261.523067  -2335.835805     91.249454
PR16 -20489.928151   4529.631674  14483.535148     10.971128
PR17  -2556.553112 -12926.939250  21846.081289    602.668627
PR18 -13555.009581   1566.717156  21557.064936     65.572585
PR19 -18144.871355  13954.664535  11257.909455   -221.004429
PR20 -11840.158584  20561.814354  -9289.222688    -87.258906
PR21   3666.270199  11664.758354 -22385.492920   -371.413563
PR22  14369.011587  -1679.002819 -20984.381070     69.941515
PR24  10622.213839 -21004.919053   9840.956297    145.033834
PR25   1857.313112  13484.951806 -21567.860685     53.776949
EOF
